GLOBALSTAR M068 [-]     
1 32266U 07048D   24028.48191192 -.00000041  00000+0  35075-3 0  9997
2 32266  51.9897  43.7544 0001095 105.9093  59.0980 12.62777712753669
GLOBALSTAR M079 [+]     
1 37188U 10054A   24028.05555274 -.00000088  00000+0  86386-4 0  9997
2 37188  52.0015 240.5340 0000765  75.0736  89.8401 12.62266207612537
GLOBALSTAR M074 [+]     
1 37189U 10054B   24028.52331187 -.00000090  00000+0  74889-4 0  9993
2 37189  51.9991 238.5111 0001044  80.0526 291.1582 12.62265017613207
GLOBALSTAR M076 [+]     
1 37190U 10054C   24028.02963396 -.00000074  00000+0  16680-3 0  9999
2 37190  52.0006 240.1420 0000931  49.1299 115.7229 12.62274071612856
GLOBALSTAR M077 [+]     
1 37191U 10054D   24028.79553816 -.00000113  00000+0 -50871-4 0  9992
2 37191  52.0049 194.5174 0001101  90.5050  17.0561 12.62269100614062
GLOBALSTAR M075 [+]     
1 37192U 10054E   24028.11810617 -.00000063  00000+0  22782-3 0  9996
2 37192  51.9950 282.4120 0000672  67.0664  80.4490 12.62270132612095
GLOBALSTAR M073 [+]     
1 37193U 10054F   24028.48873819 -.00000116  00000+0 -67738-4 0  9991
2 37193  52.0035 194.7094 0001005  89.0746 305.7296 12.62271996613977
GLOBALSTAR M083 [+]     
1 37739U 11033A   24028.51202515 -.00000084  00000+0  11023-3 0  9996
2 37739  51.9855 144.0616 0000913 120.4911 319.8783 12.62265530582991
GLOBALSTAR M088 [+]     
1 37740U 11033B   24028.50395271 -.00000088  00000+0  88748-4 0  9992
2 37740  51.9744  50.0025 0000389 158.2314   6.0390 12.62264368578535
GLOBALSTAR M091 [+]     
1 37741U 11033C   24028.35958698 -.00000094  00000+0  53470-4 0  9995
2 37741  52.0020  13.0938 0000189 156.9103  10.3877 12.62270532579300
GLOBALSTAR M085 [+]     
1 37742U 11033D   24028.26665698 -.00000071  00000+0  18239-3 0  9999
2 37742  51.9891 324.8655 0000285  81.6859  82.7790 12.62266947579800
GLOBALSTAR M081 [+]     
1 37743U 11033E   24028.29308473 -.00000081  00000+0  12491-3 0  9993
2 37743  51.9986 327.2590 0000201  31.1316 133.8313 12.62268765579952
GLOBALSTAR M089 [+]     
1 37744U 11033F   24028.17419331 -.00000067  00000+0  20584-3 0  9993
2 37744  51.9932 281.9440 0000841  49.9863 115.2636 12.62271965580789
GLOBALSTAR M084 [+]     
1 38040U 11080A   24028.48522821 -.00000103  00000+0  38908-5 0  9990
2 38040  52.0003 148.0149 0000899  86.0819 351.7886 12.62270409558809
GLOBALSTAR M080 [+]     
1 38041U 11080B   24028.62360965 -.00000101  00000+0  13840-4 0  9991
2 38041  52.0053 149.0234 0000800  77.7390  28.7889 12.62268576558945
GLOBALSTAR M082 [+]     
1 38042U 11080C   24028.64654701 -.00000069  00000+0  19534-3 0  9996
2 38042  52.0076 104.3463 0001195 140.5576  10.9657 12.62265454559828
GLOBALSTAR M092 [+]     
1 38043U 11080D   24028.60400972 -.00000113  00000+0 -48767-4 0  9994
2 38043  52.0060 194.8277 0001203  86.6745 349.3436 12.62276016558107
GLOBALSTAR M090 [+]     
1 38044U 11080E   24028.59273927 -.00000068  00000+0  19849-3 0  9997
2 38044  51.9885  98.9686 0000859 139.3609   8.3769 12.62265624559767
GLOBALSTAR M086 [+]     
1 38045U 11080F   24028.61907000 -.00000073  00000+0  17339-3 0  9995
2 38045  51.9896  99.4016 0000463 240.0607 266.6084 12.62266728559813
GLOBALSTAR M097 [+]     
1 39072U 13005A   24028.37543007 -.00000098  00000+0  31725-4 0  9994
2 39072  52.0073  14.1743 0000144 147.9602 212.1274 12.62260238506932
GLOBALSTAR M093 [+]     
1 39073U 13005B   24028.34893043 -.00000094  00000+0  57053-4 0  9998
2 39073  51.9838   8.3678 0000163 184.9691 175.1174 12.62260296506887
GLOBALSTAR M094 [+]     
1 39074U 13005C   24027.87393889 -.00000059  00000+0  24765-3 0  9993
2 39074  51.9961 283.6932 0000573  63.6755 296.4171 12.62271639508457
GLOBALSTAR M096 [+]     
1 39075U 13005D   24028.28330113 -.00000080  00000+0  13278-3 0  9992
2 39075  52.0099 330.5666 0000143  81.3365 278.7518 12.62271675507407
GLOBALSTAR M078 [+]     
1 39076U 13005E   24028.25700609  .00000021  00000+0  69696-3 0  9990
2 39076  51.9882  55.8437 0001374 132.1564 227.9420 12.62260053506025
GLOBALSTAR M095 [+]     
1 39077U 13005F   24028.44136530 -.00000088  00000+0  86452-4 0  9992
2 39077  51.9810  52.7272 0000912 158.5740 201.5165 12.62262883505908
GLOBALSTAR M087 [+]     
1 52888U 22064A   24028.25573700 -.00000084  00000+0  84497-4 0  9998
2 52888  51.9779 339.7998 0009696   9.6239 350.4846 13.37563534 78665
